ORBCOMM FM33            
1 25983U 99065D   24270.06449154  .00003162  00000+0  10725-2 0  9992
2 25983  45.0277 173.3803 0007631 169.7598 190.3407 14.38421209298086
ORBCOMM FM36            
1 25984U 99065E   24270.37381077  .00004430  00000+0  15452-2 0  9997
2 25984  45.0381 259.7492 0003392  14.5209 345.5736 14.36421958297056
ORBCOMM FM35            
1 25985U 99065F   24270.32665979  .00002821  00000+0  10149-2 0  9999
2 25985  45.0386 263.1723 0002094 193.8755 166.2036 14.35772022297032
ORBCOMM FM34            
1 25986U 99065G   24269.67272172  .00002957  00000+0  10615-2 0  9993
2 25986  45.0379 266.8087 0001722  72.8954 287.2082 14.35770141296902
ORBCOMM FM29            
1 33062U 08031C   24270.03725814  .00005233  00000+0  73765-3 0  9994
2 33062  48.4385 146.9770 0005998 325.4066 172.7493 14.78452129875410
ORBCOMM FM39            
1 33063U 08031D   24269.94146965  .00005008  00000+0  72634-3 0  9991
2 33063  48.4395 169.0644 0007170 301.0391  58.9818 14.77304764875116
